HULIANWANG DIGUI-92     
1 66000U 25231F   26195.94807948 -.00000097  00000+0  58802-4 0  9990
2 66000  50.0058  76.0891 0000553 339.5516  20.5334 13.29328930 36587
HULIANWANG DIGUI-93     
1 66001U 25231G   26195.93133928 -.00000098  00000+0  55644-4 0  9992
2 66001  50.0024  75.9367 0000535 334.3733  25.7113 13.29328026 36589
HULIANWANG DIGUI-94     
1 66002U 25231H   26195.93984683 -.00000098  00000+0  56786-4 0  9993
2 66002  50.0065  76.0636 0000569 335.7919  24.2927 13.29325959 36583
HULIANWANG DIGUI-95     
1 66003U 25231J   26195.92303361 -.00000101  00000+0  49168-4 0  9992
2 66003  50.0040  75.9192 0000525 341.4884  18.5969 13.29332469 36585
HULIANWANG DIGUI-96     
1 66412U 25258A   26195.27012210 -.00000107  00000+0  37308-4 0  9992
2 66412  50.0022 198.5045 0000869 247.0535 113.0246 13.29327223 33334
HULIANWANG DIGUI-97     
1 66413U 25258B   26195.45385005 -.00000106  00000+0  39640-4 0  9998
2 66413  49.9984 198.0704 0001029 246.8232 113.2531 13.29326663 33354
HULIANWANG DIGUI-98     
1 66414U 25258C   26195.44563950 -.00000101  00000+0  48959-4 0  9993
2 66414  50.0020 198.1053 0001108 243.1458 116.9301 13.29323159 33357
HULIANWANG DIGUI-99     
1 66415U 25258D   26195.41215626 -.00000109  00000+0  32467-4 0  9990
2 66415  50.0021 197.9242 0000984 250.0650 110.0116 13.29326499 33346
HULIANWANG DIGUI-100    
1 66416U 25258E   26195.43727668 -.00000099  00000+0  54209-4 0  9993
2 66416  50.0025 198.0665 0001017 253.3538 106.7222 13.29323269 33365
HULIANWANG DIGUI-101    
1 66417U 25258F   26195.95499981 -.00000115  00000+0  20234-4 0  9995
2 66417  49.9975 196.0271 0000836 251.1213 108.9569 13.29327132 33431
HULIANWANG DIGUI-102    
1 66418U 25258G   26195.93007484 -.00000114  00000+0  20658-4 0  9996
2 66418  49.9989 195.9220 0000878 248.7841 111.2938 13.29323158 33424
HULIANWANG DIGUI-103    
1 66419U 25258H   26195.92159501 -.00000113  00000+0  24104-4 0  9993
2 66419  49.9982 195.8632 0000972 259.6578 100.4185 13.29326224 33428
HULIANWANG DIGUI-104    
1 66420U 25258J   26195.38702781 -.00000114  00000+0  21598-4 0  9994
2 66420  50.0001 197.7470 0000939 245.5351 114.5423 13.29326225 33345
HULIANWANG DIGUI-105    
1 66915U 25285A   26195.84218083 -.00000101  00000+0  49771-4 0  9990
2 66915  50.0058  47.0377 0000971  33.0751 327.0182 13.29322707 29731
HULIANWANG DIGUI-106    
1 66916U 25285B   26195.90896211 -.00000106  00000+0  38954-4 0  9999
2 66916  50.0070  46.7449 0000993  31.8781 328.2151 13.29323067 29745
HULIANWANG DIGUI-107    
1 66917U 25285C   26195.90047254 -.00000110  00000+0  30191-4 0  9995
2 66917  50.0034  46.6391 0000972  36.7489 323.3450 13.29325959 29747
