{"fetched_at":"2026-07-15T06:36:07.156Z","source":"https://celestrak.org/NORAD/elements/gp.php?NAME=HULIANWANG&FORMAT=JSON","constellation":"guowang","records":[{"OBJECT_NAME":"HULIANWANG DIGUI-92","OBJECT_ID":"2025-231F","EPOCH":"2026-07-14T22:45:14.067072","CLASSIFICATION_TYPE":"U","MEAN_MOTION":13.2932893,"ECCENTRICITY":0.00005532,"INCLINATION":50.0058,"RA_OF_ASC_NODE":76.0891,"ARG_OF_PERICENTER":339.5516,"MEAN_ANOMALY":20.5334,"EPHEMERIS_TYPE":0,"NORAD_CAT_ID":66000,"ELEMENT_SET_NO":999,"REV_AT_EPOCH":3658,"BSTAR":0.00005880193,"MEAN_MOTION_DOT":-9.7e-7,"MEAN_MOTION_DDOT":0},{"OBJECT_NAME":"HULIANWANG DIGUI-93","OBJECT_ID":"2025-231G","EPOCH":"2026-07-14T22:21:07.713792","CLASSIFICATION_TYPE":"U","MEAN_MOTION":13.29328026,"ECCENTRICITY":0.00005354,"INCLINATION":50.0024,"RA_OF_ASC_NODE":75.9367,"ARG_OF_PERICENTER":334.3733,"MEAN_ANOMALY":25.7113,"EPHEMERIS_TYPE":0,"NORAD_CAT_ID":66001,"ELEMENT_SET_NO":999,"REV_AT_EPOCH":3658,"BSTAR":0.000055643676,"MEAN_MOTION_DOT":-9.8e-7,"MEAN_MOTION_DDOT":0},{"OBJECT_NAME":"HULIANWANG DIGUI-94","OBJECT_ID":"2025-231H","EPOCH":"2026-07-14T22:33:22.766112","CLASSIFICATION_TYPE":"U","MEAN_MOTION":13.29325959,"ECCENTRICITY":0.00005694,"INCLINATION":50.0065,"RA_OF_ASC_NODE":76.0636,"ARG_OF_PERICENTER":335.7919,"MEAN_ANOMALY":24.2927,"EPHEMERIS_TYPE":0,"NORAD_CAT_ID":66002,"ELEMENT_SET_NO":999,"REV_AT_EPOCH":3658,"BSTAR":0.000056785658,"MEAN_MOTION_DOT":-9.8e-7,"MEAN_MOTION_DDOT":0},{"OBJECT_NAME":"HULIANWANG DIGUI-95","OBJECT_ID":"2025-231J","EPOCH":"2026-07-14T22:09:10.103904","CLASSIFICATION_TYPE":"U","MEAN_MOTION":13.29332469,"ECCENTRICITY":0.00005259,"INCLINATION":50.004,"RA_OF_ASC_NODE":75.9192,"ARG_OF_PERICENTER":341.4884,"MEAN_ANOMALY":18.5969,"EPHEMERIS_TYPE":0,"NORAD_CAT_ID":66003,"ELEMENT_SET_NO":999,"REV_AT_EPOCH":3658,"BSTAR":0.000049168225,"MEAN_MOTION_DOT":-0.00000101,"MEAN_MOTION_DDOT":0},{"OBJECT_NAME":"HULIANWANG DIGUI-96","OBJECT_ID":"2025-258A","EPOCH":"2026-07-14T06:28:58.549440","CLASSIFICATION_TYPE":"U","MEAN_MOTION":13.29327223,"ECCENTRICITY":0.00008699,"INCLINATION":50.0022,"RA_OF_ASC_NODE":198.5045,"ARG_OF_PERICENTER":247.0535,"MEAN_ANOMALY":113.0246,"EPHEMERIS_TYPE":0,"NORAD_CAT_ID":66412,"ELEMENT_SET_NO":999,"REV_AT_EPOCH":3333,"BSTAR":0.000037307543,"MEAN_MOTION_DOT":-0.00000107,"MEAN_MOTION_DDOT":0},{"OBJECT_NAME":"HULIANWANG DIGUI-97","OBJECT_ID":"2025-258B","EPOCH":"2026-07-14T10:53:32.644320","CLASSIFICATION_TYPE":"U","MEAN_MOTION":13.29326663,"ECCENTRICITY":0.00010292,"INCLINATION":49.9984,"RA_OF_ASC_NODE":198.0704,"ARG_OF_PERICENTER":246.8232,"MEAN_ANOMALY":113.2531,"EPHEMERIS_TYPE":0,"NORAD_CAT_ID":66413,"ELEMENT_SET_NO":999,"REV_AT_EPOCH":3335,"BSTAR":0.000039640496,"MEAN_MOTION_DOT":-0.00000106,"MEAN_MOTION_DDOT":0},{"OBJECT_NAME":"HULIANWANG DIGUI-98","OBJECT_ID":"2025-258C","EPOCH":"2026-07-14T10:41:43.252800","CLASSIFICATION_TYPE":"U","MEAN_MOTION":13.29323159,"ECCENTRICITY":0.00011085,"INCLINATION":50.002,"RA_OF_ASC_NODE":198.1053,"ARG_OF_PERICENTER":243.1458,"MEAN_ANOMALY":116.9301,"EPHEMERIS_TYPE":0,"NORAD_CAT_ID":66414,"ELEMENT_SET_NO":999,"REV_AT_EPOCH":3335,"BSTAR":0.000048959297,"MEAN_MOTION_DOT":-0.00000101,"MEAN_MOTION_DDOT":0},{"OBJECT_NAME":"HULIANWANG DIGUI-99","OBJECT_ID":"2025-258D","EPOCH":"2026-07-14T09:53:30.300864","CLASSIFICATION_TYPE":"U","MEAN_MOTION":13.29326499,"ECCENTRICITY":0.00009849,"INCLINATION":50.0021,"RA_OF_ASC_NODE":197.9242,"ARG_OF_PERICENTER":250.065,"MEAN_ANOMALY":110.0116,"EPHEMERIS_TYPE":0,"NORAD_CAT_ID":66415,"ELEMENT_SET_NO":999,"REV_AT_EPOCH":3334,"BSTAR":0.000032467045,"MEAN_MOTION_DOT":-0.00000109,"MEAN_MOTION_DDOT":0},{"OBJECT_NAME":"HULIANWANG DIGUI-100","OBJECT_ID":"2025-258E","EPOCH":"2026-07-14T10:29:40.705152","CLASSIFICATION_TYPE":"U","MEAN_MOTION":13.29323269,"ECCENTRICITY":0.00010172,"INCLINATION":50.0025,"RA_OF_ASC_NODE":198.0665,"ARG_OF_PERICENTER":253.3538,"MEAN_ANOMALY":106.7222,"EPHEMERIS_TYPE":0,"NORAD_CAT_ID":66416,"ELEMENT_SET_NO":999,"REV_AT_EPOCH":3336,"BSTAR":0.00005420856,"MEAN_MOTION_DOT":-9.9e-7,"MEAN_MOTION_DDOT":0},{"OBJECT_NAME":"HULIANWANG DIGUI-101","OBJECT_ID":"2025-258F","EPOCH":"2026-07-14T22:55:11.983584","CLASSIFICATION_TYPE":"U","MEAN_MOTION":13.29327132,"ECCENTRICITY":0.00008363,"INCLINATION":49.9975,"RA_OF_ASC_NODE":196.0271,"ARG_OF_PERICENTER":251.1213,"MEAN_ANOMALY":108.9569,"EPHEMERIS_TYPE":0,"NORAD_CAT_ID":66417,"ELEMENT_SET_NO":999,"REV_AT_EPOCH":3343,"BSTAR":0.000020233592,"MEAN_MOTION_DOT":-0.00000115,"MEAN_MOTION_DDOT":0},{"OBJECT_NAME":"HULIANWANG DIGUI-102","OBJECT_ID":"2025-258G","EPOCH":"2026-07-14T22:19:18.466176","CLASSIFICATION_TYPE":"U","MEAN_MOTION":13.29323158,"ECCENTRICITY":0.00008785,"INCLINATION":49.9989,"RA_OF_ASC_NODE":195.922,"ARG_OF_PERICENTER":248.7841,"MEAN_ANOMALY":111.2938,"EPHEMERIS_TYPE":0,"NORAD_CAT_ID":66418,"ELEMENT_SET_NO":999,"REV_AT_EPOCH":3342,"BSTAR":0.000020657736,"MEAN_MOTION_DOT":-0.00000114,"MEAN_MOTION_DDOT":0},{"OBJECT_NAME":"HULIANWANG DIGUI-103","OBJECT_ID":"2025-258H","EPOCH":"2026-07-14T22:07:05.808864","CLASSIFICATION_TYPE":"U","MEAN_MOTION":13.29326224,"ECCENTRICITY":0.00009722,"INCLINATION":49.9982,"RA_OF_ASC_NODE":195.8632,"ARG_OF_PERICENTER":259.6578,"MEAN_ANOMALY":100.4185,"EPHEMERIS_TYPE":0,"NORAD_CAT_ID":66419,"ELEMENT_SET_NO":999,"REV_AT_EPOCH":3342,"BSTAR":0.000024103543,"MEAN_MOTION_DOT":-0.00000113,"MEAN_MOTION_DDOT":0},{"OBJECT_NAME":"HULIANWANG DIGUI-104","OBJECT_ID":"2025-258J","EPOCH":"2026-07-14T09:17:19.202784","CLASSIFICATION_TYPE":"U","MEAN_MOTION":13.29326225,"ECCENTRICITY":0.00009393,"INCLINATION":50.0001,"RA_OF_ASC_NODE":197.747,"ARG_OF_PERICENTER":245.5351,"MEAN_ANOMALY":114.5423,"EPHEMERIS_TYPE":0,"NORAD_CAT_ID":66420,"ELEMENT_SET_NO":999,"REV_AT_EPOCH":3334,"BSTAR":0.000021598274,"MEAN_MOTION_DOT":-0.00000114,"MEAN_MOTION_DDOT":0},{"OBJECT_NAME":"HULIANWANG DIGUI-105","OBJECT_ID":"2025-285A","EPOCH":"2026-07-14T20:12:44.423712","CLASSIFICATION_TYPE":"U","MEAN_MOTION":13.29322707,"ECCENTRICITY":0.00009719,"INCLINATION":50.0058,"RA_OF_ASC_NODE":47.0377,"ARG_OF_PERICENTER":33.0751,"MEAN_ANOMALY":327.0182,"EPHEMERIS_TYPE":0,"NORAD_CAT_ID":66915,"ELEMENT_SET_NO":999,"REV_AT_EPOCH":2973,"BSTAR":0.000049771469,"MEAN_MOTION_DOT":-0.00000101,"MEAN_MOTION_DDOT":0},{"OBJECT_NAME":"HULIANWANG DIGUI-106","OBJECT_ID":"2025-285B","EPOCH":"2026-07-14T21:48:54.326304","CLASSIFICATION_TYPE":"U","MEAN_MOTION":13.29323067,"ECCENTRICITY":0.00009935,"INCLINATION":50.007,"RA_OF_ASC_NODE":46.7449,"ARG_OF_PERICENTER":31.8781,"MEAN_ANOMALY":328.2151,"EPHEMERIS_TYPE":0,"NORAD_CAT_ID":66916,"ELEMENT_SET_NO":999,"REV_AT_EPOCH":2974,"BSTAR":0.000038953752,"MEAN_MOTION_DOT":-0.00000106,"MEAN_MOTION_DDOT":0},{"OBJECT_NAME":"HULIANWANG DIGUI-107","OBJECT_ID":"2025-285C","EPOCH":"2026-07-14T21:36:40.827456","CLASSIFICATION_TYPE":"U","MEAN_MOTION":13.29325959,"ECCENTRICITY":0.00009727,"INCLINATION":50.0034,"RA_OF_ASC_NODE":46.6391,"ARG_OF_PERICENTER":36.7489,"MEAN_ANOMALY":323.345,"EPHEMERIS_TYPE":0,"NORAD_CAT_ID":66917,"ELEMENT_SET_NO":999,"REV_AT_EPOCH":2974,"BSTAR":0.000030190698,"MEAN_MOTION_DOT":-0.0000011,"MEAN_MOTION_DDOT":0}]}
